#cP2018  7 15  0  0  0.00000000     192 ORBIT IGS14 HLM  IGS
## 2010      0.00000000   900.00000000 58314 0.0000000000000
+   31   G01G02G03G05G06G07G08G09G10G11G12G13G14G15G16G17G18
+        G19G20G21G22G23G24G25G26G27G28G29G30G31G32  0  0  0
+          0  0  0  0  0  0  0  0  0  0  0  0  0  0  0  0  0
+          0  0  0  0  0  0  0  0  0  0  0  0  0  0  0  0  0
+          0  0  0  0  0  0  0  0  0  0  0  0  0  0  0  0  0
++         3  4  3  3  3  3  3  3  3  3  5  3  3  3  5  3  3
++         3  4  4  3  3  3  5  3  3  5  4  4  3  3  0  0  0
++         0  0  0  0  0  0  0  0  0  0  0  0  0  0  0  0  0
++         0  0  0  0  0  0  0  0  0  0  0  0  0  0  0  0  0
++         0  0  0  0  0  0  0  0  0  0  0  0  0  0  0  0  0
%c G  cc GPS ccc cccc cccc cccc cccc ccccc ccccc ccccc ccccc
%c cc cc ccc ccc cccc cccc cccc cccc ccccc ccccc ccccc ccccc
%f  1.2500000  1.025000000  0.00000000000  0.000000000000000
%f  0.0000000  0.000000000  0.00000000000  0.000000000000000
%i    0    0    0    0      0      0      0      0         0
%i    0    0    0    0      0      0      0      0         0
/* ULTRA ORBIT COMBINATION 20101_00 (58315.000) FROM:       
/* cou emu esu gfu ngu siu usu whu                          
/* REFERENCED TO emu CLOCK AND TO WEIGHTED MEAN POLE:       
/* PCV:IGS14_2008 OL/AL:FES2004  NONE     Y  ORB:CMB CLK:CMB
*  2018  7 16  0 45  0.00000000
PG01  -9978.295293  20441.991547 -13610.728116    -66.169416  5  8  5 197  P   P
PG02  21229.810803 -14413.585758  -5797.760244     56.728168  7 11 12 226  P   P
PG03   -591.955867  15698.890532 -21448.183437    106.285574  8  2  4 226  P   P
PG05  20800.909689  -4966.074516  15781.151756     -4.551898  7  6  9 221  P   P
PG06  19687.578954   -792.647651 -17793.432291    386.758151  9  9  6 193  P   P
PG07   5487.366219  14948.008886  21418.867139    158.275976  9  2  7 224  P   P
PG08  -6964.082237  20312.694059  15573.168216   -108.297567  9  6  7 293  P   P
PG09   7825.274728  25033.350218   4118.527030    513.629809  8  6  7 213  P   P
PG10 -24038.293356 -11029.363101   3309.582164    188.765608  6  8  6 221  P   P
PG11  -7870.518645  25122.754983  -4711.681540   -729.868498  6  7  7 233  P   P
PG12   6256.423288 -13351.362268 -22280.075492    320.721245 14 10  7 243  P   P
PG13  12634.824314 -12835.483062  19412.147974    -92.374976 11 11  4 200  P   P
PG14 -15246.821253  -3263.838824 -21219.391796    -97.624022 10  7  7 224  P   P
PG15   4082.288726 -22449.238321  13050.194594   -350.677204  7  6  9 216  P   P
PG16 -21569.337045   1456.309259  15547.998604     17.615162  6  9 11 250  P   P
PG17  13717.331108  13756.914304 -17779.308376    -77.825528  7  8  7 241  P   P
PG18 -16003.636420  20389.273185  -5813.112402     34.092878 10  9  4 265  P   P
PG19  15008.427756   3784.825036 -21862.214856   -420.080859  8 10  1 225  P   P
PG20 -18826.640264 -14027.717792  12385.498519    512.460852 13  7  8 153  P   P
PG21  -9636.143567 -12773.603560  22003.678674   -366.969619 11  9  8 231  P   P
PG22  -9719.765400  13301.199646 -20591.038323   -458.959649  7  7  7 236  P   P
PG23    288.747893  25485.187370  -6347.663641   -214.425173  9  5  8 224  P   P
PG24  12442.852543 -21189.814081  -9815.330308    -52.595642  7  7  7 288  P   P
PG25  -9707.497446 -16829.034604 -18397.602021   -616.694254 14  5 11 212  P   P
PG26 -25553.476445  -3834.589302   6433.387710    -82.607410 10  8 10 171  P   P
PG27 -12935.516008   8964.443940  21267.390063    360.735138  8  8  5 225  P   P
PG28  21438.590695  14534.296614   6369.077092    731.478389 12 10 15 274  P   P
PG29  -4731.779862 -26017.084093   2502.802650    414.100681  8  7 12 218  P   P
PG30  14739.852301   7680.453319  20763.077079     50.094550 11 10  4 189  P   P
PG31 -21029.336729   2232.154601 -16286.722793    107.476976 10 10    229  P   P
PG32 -15094.172696 -12865.998380 -17665.727815   -474.293425  6  5  8 206  P   P
*  2018  7 16  1  0  0.00000000
PG01 -11160.684055  21230.351020 -11224.867593    -66.172886  6  9  5 193  P   P
PG02  20812.601734 -13573.060676  -8484.761770     56.718518  5 12 12 227  P   P
PG03  -2946.843735  14963.343335 -21771.741133    106.291006  8     5 228  P   P
PG05  22371.965766  -4285.253414  13730.197374     -4.551427  7  7 10 218  P   P
PG06  18193.709427    723.674703 -19316.392186    386.754743 10  9  5 196  P   P
PG07   3644.604358  16440.835747  20656.032011    158.270239  9  2  7 224  P   P
PG08  -7537.343557  18508.524438  17460.080936   -108.298716  9  7  6 294  P   P
PG09   7622.853908  25401.136376   1301.687444    513.629179  8  6  8 215  P   P
PG10 -23461.541461 -11091.139832   6090.305652    188.765372  6  9  6 216  P   P
PG11  -8355.549228  25268.137203  -2014.408148   -729.866944  7  7  6 233  P   P
PG12   8562.701688 -12417.459845 -22033.877550    320.718930 14 10  8 244  P   P
PG13  12940.222515 -10547.839280  20549.776205    -92.374574 11 11  3 200  P   P
PG14 -15513.932293  -5699.214021 -20525.507279    -97.624082 10  7  8 227  P   P
PG15   4844.688626 -20937.529156  15138.756388   -350.676519  7  7  8 216  P   P
PG16 -23056.943632    709.899093  13368.666626     17.613821  5  8 12 252  P   P
PG17  13909.991501  15740.174694 -15939.430755    -77.821927  6  7  8 242  P   P
PG18 -16531.541909  20504.549123  -3027.699745     34.096888 11  9  4 265  P   P
PG19  15227.508208   6170.021019 -21132.140530   -420.078010  8  9  3 225  P   P
PG20 -17243.172974 -13972.843979  14537.089926    512.461467 12  7  7 159  P   P
PG21  -7961.404865 -14402.096262  21654.819899   -366.964690 11  9  9 232  P   P
PG22 -11993.017856  12610.249539 -19819.838652   -458.970460  4  8  7 238  P   P
PG23   -232.683526  24654.197569  -9001.299987   -214.424657  9  5  8 225  P   P
PG24  13347.994630 -21653.738007  -7216.180583    -52.596257  7  7  7 293  P   P
PG25  -7642.644285 -16252.374118 -19827.537853   -616.699496 14  5 11 214  P   P
PG26 -26033.444740  -4243.895944   3674.217769    -82.596510  9  8 10 173  P   P
PG27 -13512.310991   6550.769873  21803.318842    360.733098  8  8  5 222  P   P
PG28  20629.289156  14372.942988   9095.600789    731.480774 13 10 14 275  P   P
PG29  -4564.133596 -26166.971381   -394.846562    414.094478  9  7 12 215  P   P
PG30  12907.193900   9243.937525  21323.257086     50.090295 11 10  4 194  P   P
PG31 -19625.226507    865.648698 -18032.613658    107.474625  9 10    227  P   P
PG32 -15349.740032 -14780.126626 -15868.210681   -474.286227  5  4  9 207  P   P
*  2018  7 16  1 15  0.00000000
PG01 -12102.491625  21880.571649  -8644.126435    -66.176358  7  9  6 189  P   P
PG02  20240.531475 -12483.849788 -11020.571250     56.708874  7 13 11 232  P   P
PG03  -5352.550242  14347.899344 -21721.593588    106.296438  9  2  6 229  P   P
PG05  23735.813140  -3742.210972  11443.904244     -4.550960  8  8 10 216  P   P
PG06  16675.848235   2428.561399 -20506.407046    386.751330 10 10  5 201  P   P
PG07   1953.117849  17956.274677  19541.373351    158.264501  9     7 224  P   P
PG08  -8260.173918  16549.439364  19045.766209   -108.299851  9  6  6 294  P   P
PG09   7350.527661  25471.273776  -1537.580219    513.628547  8  7  8 217  P   P
PG10 -22590.849036 -11106.688493   8767.333569    188.765138  7  9  7 211  P   P
PG11  -8732.806133  25149.766788    716.986992   -729.865390  8  7  7 234  P   P
PG12  10873.764623 -11629.916606 -21414.555492    320.716617 14 10  9 245  P   P
PG13  13382.782778  -8171.287276  21330.441840    -92.374173 11 11  4 202  P   P
PG14 -15886.525560  -8016.570278 -19470.042991    -97.624138 10  7  9 230  P   P
PG15   5751.870857 -19253.544662  16958.625736   -350.675834  5  8  8 216  P   P
PG16 -24337.733356    136.373757  10961.850961     17.612478  6  8 13 254  P   P
PG17  14162.579307  17484.777821 -13819.226062    -77.818323  6  7  9 243  P   P
PG18 -16842.877047  20407.938767   -189.937794     34.100894 11  9  4 265  P   P
PG19  15561.862343   8441.517999 -20046.824891   -420.075162  8 10  5 226  P   P
PG20 -15431.343427 -13959.676267  16437.673211    512.462083 12  8  7 162  P   P
PG21  -6410.058941 -16073.468714  20958.891580   -366.959762 11 10 10 234  P   P
PG22 -14189.425272  12045.471865 -18700.401320   -458.981271  3  8  7 241  P   P
PG23   -877.103100  23565.705345 -11494.406387   -214.424143  9  5  7 227  P   P
PG24  14028.318353 -21936.818516  -4491.166179    -52.596873  6  7  8 297  P   P
PG25  -5411.158275 -15753.971851 -20923.562469   -616.704739 14  4 10 215  P   P
PG26 -26227.710147  -4554.604124    852.315050    -82.585612  8  8 11 177  P   P
PG27 -14229.510159   4136.347832  21960.432454    360.731062  8  8  6 217  P   P
PG28  19535.336782  14155.736642  11668.711910    731.483155 13  9 14 276  P   P
PG29  -4336.700005 -26004.706727  -3285.705609    414.088272  9  8 12 212  P   P
PG30  11121.635402  10926.162622  21517.526850     50.086042 11 10  4 199  P   P
PG31 -18164.152003   -700.158915 -19471.847003    107.472274  9 10  4 224  P   P
PG32 -15643.793046 -16467.290312 -13797.854860   -474.279027  6  4  9 208  P   P
EOF
